[{"OBJECT_NAME":"STARLINK-30154","OBJECT_ID":"2023-113A","EPOCH":"2026-03-17T08:00:01.000224","MEAN_MOTION":15.26767523,"ECCENTRICITY":0.00016164,"INCLINATION":43.0021,"RA_OF_ASC_NODE":332.7012,"ARG_OF_PERICENTER":271.7597,"MEAN_ANOMALY":188.8185,"EPHEMERIS_TYPE":0,"CLASSIFICATION_TYPE":"U","NORAD_CAT_ID":57495,"ELEMENT_SET_NO":999,"REV_AT_EPOCH":564,"BSTAR":-0.00039249251,"MEAN_MOTION_DOT":-0.00010782,"MEAN_MOTION_DDOT":0},{"OBJECT_NAME":"STARLINK-30145","OBJECT_ID":"2023-113B","EPOCH":"2026-03-17T09:22:56.767584","MEAN_MOTION":15.26743605,"ECCENTRICITY":0.00011246,"INCLINATION":42.9995,"RA_OF_ASC_NODE":332.5199,"ARG_OF_PERICENTER":279.5997,"MEAN_ANOMALY":80.4727,"EPHEMERIS_TYPE":0,"CLASSIFICATION_TYPE":"U","NORAD_CAT_ID":57496,"ELEMENT_SET_NO":999,"REV_AT_EPOCH":14474,"BSTAR":4.3225167e-5,"MEAN_MOTION_DOT":9.0e-6,"MEAN_MOTION_DDOT":0},{"OBJECT_NAME":"STARLINK-30226","OBJECT_ID":"2023-113C","EPOCH":"2026-03-16T23:48:34.802208","MEAN_MOTION":15.26742291,"ECCENTRICITY":0.0001285,"INCLINATION":43.0004,"RA_OF_ASC_NODE":334.6983,"ARG_OF_PERICENTER":255.737,"MEAN_ANOMALY":104.3339,"EPHEMERIS_TYPE":0,"CLASSIFICATION_TYPE":"U","NORAD_CAT_ID":57497,"ELEMENT_SET_NO":999,"REV_AT_EPOCH":14469,"BSTAR":1.7576e-5,"MEAN_MOTION_DOT":2.12e-6,"MEAN_MOTION_DDOT":0},{"OBJECT_NAME":"STARLINK-30203","OBJECT_ID":"2023-113D","EPOCH":"2026-03-17T10:14:51.279360","MEAN_MOTION":15.26744346,"ECCENTRICITY":0.0001431,"INCLINATION":43.0015,"RA_OF_ASC_NODE":331.9337,"ARG_OF_PERICENTER":267.6848,"MEAN_ANOMALY":92.384,"EPHEMERIS_TYPE":0,"CLASSIFICATION_TYPE":"U","NORAD_CAT_ID":57498,"ELEMENT_SET_NO":999,"REV_AT_EPOCH":14488,"BSTAR":8.6161231e-5,"MEAN_MOTION_DOT":2.052e-5,"MEAN_MOTION_DDOT":0},{"OBJECT_NAME":"STARLINK-30169","OBJECT_ID":"2023-113E","EPOCH":"2026-03-16T22:56:17.556000","MEAN_MOTION":15.27606039,"ECCENTRICITY":3.55e-5,"INCLINATION":42.999,"RA_OF_ASC_NODE":320.8543,"ARG_OF_PERICENTER":17.0975,"MEAN_ANOMALY":342.9889,"EPHEMERIS_TYPE":0,"CLASSIFICATION_TYPE":"U","NORAD_CAT_ID":57499,"ELEMENT_SET_NO":999,"REV_AT_EPOCH":14479,"BSTAR":0.00027629,"MEAN_MOTION_DOT":7.355e-5,"MEAN_MOTION_DDOT":0},{"OBJECT_NAME":"STARLINK-30164","OBJECT_ID":"2023-113F","EPOCH":"2026-03-16T23:50:23.020800","MEAN_MOTION":15.26769978,"ECCENTRICITY":0.0001675,"INCLINATION":43.0019,"RA_OF_ASC_NODE":334.6921,"ARG_OF_PERICENTER":267.7049,"MEAN_ANOMALY":92.3611,"EPHEMERIS_TYPE":0,"CLASSIFICATION_TYPE":"U","NORAD_CAT_ID":57500,"ELEMENT_SET_NO":999,"REV_AT_EPOCH":14479,"BSTAR":0.00035953,"MEAN_MOTION_DOT":9.405e-5,"MEAN_MOTION_DDOT":0},{"OBJECT_NAME":"STARLINK-30072","OBJECT_ID":"2023-113G","EPOCH":"2026-03-17T09:53:09.088800","MEAN_MOTION":15.26745937,"ECCENTRICITY":7.13e-5,"INCLINATION":42.9982,"RA_OF_ASC_NODE":332.6601,"ARG_OF_PERICENTER":284.88,"MEAN_ANOMALY":75.1972,"EPHEMERIS_TYPE":0,"CLASSIFICATION_TYPE":"U","NORAD_CAT_ID":57501,"ELEMENT_SET_NO":999,"REV_AT_EPOCH":14474,"BSTAR":0.0001399553,"MEAN_MOTION_DOT":3.497e-5,"MEAN_MOTION_DDOT":0},{"OBJECT_NAME":"STARLINK-30230","OBJECT_ID":"2023-113J","EPOCH":"2026-03-16T23:34:29.640000","MEAN_MOTION":15.26732158,"ECCENTRICITY":0.0001538,"INCLINATION":43.0007,"RA_OF_ASC_NODE":334.6033,"ARG_OF_PERICENTER":249.049,"MEAN_ANOMALY":111.0197,"EPHEMERIS_TYPE":0,"CLASSIFICATION_TYPE":"U","NORAD_CAT_ID":57503,"ELEMENT_SET_NO":999,"REV_AT_EPOCH":14468,"BSTAR":4.4673e-5,"MEAN_MOTION_DOT":9.38e-6,"MEAN_MOTION_DDOT":0},{"OBJECT_NAME":"STARLINK-30213","OBJECT_ID":"2023-113K","EPOCH":"2026-03-17T09:39:14.557248","MEAN_MOTION":15.2674506,"ECCENTRICITY":0.00013483,"INCLINATION":42.9999,"RA_OF_ASC_NODE":332.5885,"ARG_OF_PERICENTER":262.6191,"MEAN_ANOMALY":97.4508,"EPHEMERIS_TYPE":0,"CLASSIFICATION_TYPE":"U","NORAD_CAT_ID":57504,"ELEMENT_SET_NO":999,"REV_AT_EPOCH":14485,"BSTAR":0.00032096004,"MEAN_MOTION_DOT":8.361e-5,"MEAN_MOTION_DDOT":0},{"OBJECT_NAME":"STARLINK-30227","OBJECT_ID":"2023-113L","EPOCH":"2026-03-17T09:07:40.324512","MEAN_MOTION":15.19125288,"ECCENTRICITY":0.00030944,"INCLINATION":43.0054,"RA_OF_ASC_NODE":319.4325,"ARG_OF_PERICENTER":250.3736,"MEAN_ANOMALY":109.6779,"EPHEMERIS_TYPE":0,"CLASSIFICATION_TYPE":"U","NORAD_CAT_ID":57505,"ELEMENT_SET_NO":999,"REV_AT_EPOCH":14500,"BSTAR":0.00040752459,"MEAN_MOTION_DOT":8.491e-5,"MEAN_MOTION_DDOT":0},{"OBJECT_NAME":"STARLINK-30212","OBJECT_ID":"2023-113M","EPOCH":"2026-03-17T10:14:51.230112","MEAN_MOTION":15.26751076,"ECCENTRICITY":0.00015289,"INCLINATION":43.002,"RA_OF_ASC_NODE":332.7741,"ARG_OF_PERICENTER":266.0914,"MEAN_ANOMALY":93.9762,"EPHEMERIS_TYPE":0,"CLASSIFICATION_TYPE":"U","NORAD_CAT_ID":57506,"ELEMENT_SET_NO":999,"REV_AT_EPOCH":14469,"BSTAR":0.00022570268,"MEAN_MOTION_DOT":5.801e-5,"MEAN_MOTION_DDOT":0},{"OBJECT_NAME":"STARLINK-30219","OBJECT_ID":"2023-113N","EPOCH":"2026-03-16T23:41:28.921056","MEAN_MOTION":15.22743334,"ECCENTRICITY":0.0001199,"INCLINATION":42.9996,"RA_OF_ASC_NODE":335.5057,"ARG_OF_PERICENTER":231.711,"MEAN_ANOMALY":128.3633,"EPHEMERIS_TYPE":0,"CLASSIFICATION_TYPE":"U","NORAD_CAT_ID":57507,"ELEMENT_SET_NO":999,"REV_AT_EPOCH":14478,"BSTAR":0.00021899,"MEAN_MOTION_DOT":4.965e-5,"MEAN_MOTION_DDOT":0},{"OBJECT_NAME":"STARLINK-30074","OBJECT_ID":"2023-113P","EPOCH":"2026-03-17T09:31:37.752672","MEAN_MOTION":15.26740706,"ECCENTRICITY":0.00011107,"INCLINATION":42.9985,"RA_OF_ASC_NODE":332.5542,"ARG_OF_PERICENTER":265.9418,"MEAN_ANOMALY":94.1306,"EPHEMERIS_TYPE":0,"CLASSIFICATION_TYPE":"U","NORAD_CAT_ID":57508,"ELEMENT_SET_NO":999,"REV_AT_EPOCH":14464,"BSTAR":-4.902336e-5,"MEAN_MOTION_DOT":-1.574e-5,"MEAN_MOTION_DDOT":0},{"OBJECT_NAME":"STARLINK-30082","OBJECT_ID":"2023-113Q","EPOCH":"2026-03-17T01:25:00.351840","MEAN_MOTION":15.27565027,"ECCENTRICITY":0.000142,"INCLINATION":43.0025,"RA_OF_ASC_NODE":334.3336,"ARG_OF_PERICENTER":264.4034,"MEAN_ANOMALY":95.6655,"EPHEMERIS_TYPE":0,"CLASSIFICATION_TYPE":"U","NORAD_CAT_ID":57509,"ELEMENT_SET_NO":999,"REV_AT_EPOCH":14480,"BSTAR":-0.00012341,"MEAN_MOTION_DOT":-3.655e-5,"MEAN_MOTION_DDOT":0},{"OBJECT_NAME":"STARLINK-30153","OBJECT_ID":"2023-113R","EPOCH":"2026-03-17T10:21:49.667904","MEAN_MOTION":15.26743796,"ECCENTRICITY":0.0001367,"INCLINATION":43.0016,"RA_OF_ASC_NODE":331.9793,"ARG_OF_PERICENTER":249.7559,"MEAN_ANOMALY":110.3145,"EPHEMERIS_TYPE":0,"CLASSIFICATION_TYPE":"U","NORAD_CAT_ID":57510,"ELEMENT_SET_NO":999,"REV_AT_EPOCH":14475,"BSTAR":3.1918366e-5,"MEAN_MOTION_DOT":5.97e-6,"MEAN_MOTION_DDOT":0},{"OBJECT_NAME":"STARLINK-30147","OBJECT_ID":"2023-113S","EPOCH":"2026-03-17T14:00:01.999872","MEAN_MOTION":15.27555049,"ECCENTRICITY":0.00017415,"INCLINATION":43.0016,"RA_OF_ASC_NODE":331.2725,"ARG_OF_PERICENTER":257.6525,"MEAN_ANOMALY":151.6397,"EPHEMERIS_TYPE":0,"CLASSIFICATION_TYPE":"U","NORAD_CAT_ID":57511,"ELEMENT_SET_NO":999,"REV_AT_EPOCH":562,"BSTAR":0.0011868317,"MEAN_MOTION_DOT":0.00032516,"MEAN_MOTION_DDOT":0}]
