STARLINK-30154          
1 57495U 23113A   26076.33334491 -.00010782  00000+0 -39249-3 0  9990
2 57495  43.0021 332.7012 0001616 271.7597 188.8185 15.26767523  5640
STARLINK-30145          
1 57496U 23113B   26076.39093481  .00000900  00000+0  43225-4 0  9997
2 57496  42.9995 332.5199 0001124 279.5997  80.4727 15.26743605144746
STARLINK-30226          
1 57497U 23113C   26075.99206947  .00000212  00000+0  17576-4 0  9992
2 57497  43.0004 334.6983 0001284 255.7370 104.3339 15.26742291144691
STARLINK-30203          
1 57498U 23113D   26076.42698240  .00002052  00000+0  86161-4 0  9993
2 57498  43.0015 331.9337 0001431 267.6848  92.3840 15.26744346144880
STARLINK-30169          
1 57499U 23113E   26075.95575875  .00007355  00000+0  27629-3 0  9993
2 57499  42.9990 320.8543 0000355  17.0975 342.9889 15.27606039144793
STARLINK-30164          
1 57500U 23113F   26075.99332200  .00009405  00000+0  35953-3 0  9990
2 57500  43.0019 334.6921 0001675 267.7049  92.3611 15.26769978144795
STARLINK-30072          
1 57501U 23113G   26076.41191075  .00003497  00000+0  13996-3 0  9990
2 57501  42.9982 332.6601 0000713 284.8800  75.1972 15.26745937144746
STARLINK-30230          
1 57503U 23113J   26075.98228750  .00000938  00000+0  44673-4 0  9998
2 57503  43.0007 334.6033 0001538 249.0490 111.0197 15.26732158144686
STARLINK-30213          
1 57504U 23113K   26076.40225182  .00008361  00000+0  32096-3 0  9996
2 57504  42.9999 332.5885 0001348 262.6191  97.4508 15.26745060144853
STARLINK-30227          
1 57505U 23113L   26076.38032783  .00008491  00000+0  40752-3 0  9999
2 57505  43.0054 319.4325 0003094 250.3736 109.6779 15.19125288145000
STARLINK-30212          
1 57506U 23113M   26076.42698183  .00005801  00000+0  22570-3 0  9997
2 57506  43.0020 332.7741 0001528 266.0914  93.9762 15.26751076144695
STARLINK-30219          
1 57507U 23113N   26075.98714030  .00004965  00000+0  21899-3 0  9991
2 57507  42.9996 335.5057 0001198 231.7110 128.3633 15.22743334144781
STARLINK-30074          
1 57508U 23113P   26076.39696473 -.00001574  00000+0 -49023-4 0  9993
2 57508  42.9985 332.5542 0001110 265.9418  94.1306 15.26740706144646
STARLINK-30082          
1 57509U 23113Q   26076.05903186 -.00003655  00000+0 -12341-3 0  9993
2 57509  43.0025 334.3336 0001419 264.4034  95.6655 15.27565027144808
STARLINK-30153          
1 57510U 23113R   26076.43182486  .00000597  00000+0  31918-4 0  9991
2 57510  43.0016 331.9793 0001367 249.7559 110.3145 15.26743796144753
STARLINK-30147          
1 57511U 23113S   26076.58335648  .00032516  00000+0  11868-2 0  9994
2 57511  43.0016 331.2725 0001741 257.6525 151.6397 15.27555049  5621
